[{"OBJECT_NAME":"SKYKRAFT-1A","OBJECT_ID":"2023-001AX","EPOCH":"2026-03-09T17:03:19.828224","MEAN_MOTION":15.28083228,"ECCENTRICITY":0.00112767,"INCLINATION":97.3349,"RA_OF_ASC_NODE":127.629,"ARG_OF_PERICENTER":121.5092,"MEAN_ANOMALY":238.7251,"EPHEMERIS_TYPE":0,"CLASSIFICATION_TYPE":"U","NORAD_CAT_ID":55054,"ELEMENT_SET_NO":999,"REV_AT_EPOCH":17652,"BSTAR":0.0003006872,"MEAN_MOTION_DOT":8.177e-5,"MEAN_MOTION_DDOT":0},{"OBJECT_NAME":"STARLINK-32628","OBJECT_ID":"2024-222J","EPOCH":"2026-03-09T12:29:58.618176","MEAN_MOTION":15.27584243,"ECCENTRICITY":0.0001489,"INCLINATION":43.0014,"RA_OF_ASC_NODE":137.0954,"ARG_OF_PERICENTER":276.6665,"MEAN_ANOMALY":83.4017,"EPHEMERIS_TYPE":0,"CLASSIFICATION_TYPE":"U","NORAD_CAT_ID":62122,"ELEMENT_SET_NO":999,"REV_AT_EPOCH":7289,"BSTAR":0.00083081558,"MEAN_MOTION_DOT":0.00022673,"MEAN_MOTION_DDOT":0}]
